{
    "links": {
        "self": "http://www.neowsapp.com/rest/v1/neo/3117439?api_key=iIulBulltgU6a56xZRHN4H3l9WmuAYTsLGpBGhQ2"
    },
    "id": "3117439",
    "neo_reference_id": "3117439",
    "name": "(2002 EY11)",
    "designation": "2002 EY11",
    "nasa_jpl_url": "http://ssd.jpl.nasa.gov/sbdb.cgi?sstr=3117439",
    "absolute_magnitude_h": 22.2,
    "estimated_diameter": {
        "kilometers": {
            "estimated_diameter_min": 0.096506147,
            "estimated_diameter_max": 0.2157943048
        },
        "meters": {
            "estimated_diameter_min": 96.5061469579,
            "estimated_diameter_max": 215.7943048444
        },
        "miles": {
            "estimated_diameter_min": 0.059966121,
            "estimated_diameter_max": 0.134088323
        },
        "feet": {
            "estimated_diameter_min": 316.6212271853,
            "estimated_diameter_max": 707.9865871058
        }
    },
    "is_potentially_hazardous_asteroid": false,
    "close_approach_data": [
        {
            "close_approach_date": "1959-02-26",
            "close_approach_date_full": "1959-Feb-26 11:05",
            "epoch_date_close_approach": -342276900000,
            "relative_velocity": {
                "kilometers_per_second": "7.1185453887",
                "kilometers_per_hour": "25626.7633993475",
                "miles_per_hour": "15923.4741800001"
            },
            "miss_distance": {
                "astronomical": "0.2106118063",
                "lunar": "81.9279926507",
                "kilometers": "31507077.619332581",
                "miles": "19577590.2077323778"
            },
            "orbiting_body": "Earth"
        },
        {
            "close_approach_date": "2002-02-26",
            "close_approach_date_full": "2002-Feb-26 08:10",
            "epoch_date_close_approach": 1014711000000,
            "relative_velocity": {
                "kilometers_per_second": "6.6427212594",
                "kilometers_per_hour": "23913.7965336889",
                "miles_per_hour": "14859.103185058"
            },
            "miss_distance": {
                "astronomical": "0.1826808849",
                "lunar": "71.0628642261",
                "kilometers": "27328671.270755163",
                "miles": "16981248.8966727294"
            },
            "orbiting_body": "Earth"
        },
        {
            "close_approach_date": "2045-02-26",
            "close_approach_date_full": "2045-Feb-26 01:40",
            "epoch_date_close_approach": 2371686000000,
            "relative_velocity": {
                "kilometers_per_second": "6.427445553",
                "kilometers_per_hour": "23138.8039906458",
                "miles_per_hour": "14377.5529574099"
            },
            "miss_distance": {
                "astronomical": "0.185137652",
                "lunar": "72.018546628",
                "kilometers": "27696198.39600124",
                "miles": "17209619.662607512"
            },
            "orbiting_body": "Earth"
        }
    ],
    "orbital_data": {
        "orbit_id": "11",
        "orbit_determination_date": "2017-04-06 09:15:19",
        "first_observation_date": "2002-03-15",
        "last_observation_date": "2002-04-18",
        "data_arc_in_days": 34,
        "observations_used": 36,
        "orbit_uncertainty": "6",
        "minimum_orbit_intersection": ".185919",
        "jupiter_tisserand_invariant": "3.475",
        "epoch_osculation": "2459000.5",
        "eccentricity": ".4781000717765747",
        "semi_major_axis": "2.219593546815082",
        "inclination": "9.829567749361237",
        "ascending_node_longitude": "176.3211582705499",
        "orbital_period": "1207.837772505377",
        "perihelion_distance": "1.158405712767969",
        "perihelion_argument": "329.1720524582142",
        "aphelion_distance": "3.280781380862194",
        "perihelion_time": "2459568.774398788171",
        "mean_anomaly": "190.6239561134184",
        "mean_motion": ".2980532718837433",
        "equinox": "J2000",
        "orbit_class": {
            "orbit_class_type": "AMO",
            "orbit_class_description": "Near-Earth asteroid orbits similar to that of 1221 Amor",
            "orbit_class_range": "1.017 AU < q (perihelion) < 1.3 AU"
        }
    },
    "is_sentry_object": false
}